{
  "type": "FeatureCollection",
  "features": [
    {
      "type": "Feature",
      "properties": {
        "norad_id": 66482,
        "name": "STARLINK-35648",
        "group": "last-30-days",
        "lat": 34.306877150059194,
        "lon": 107.13405847470578,
        "alt_km": 409.39418729063254,
        "timestamp": "2025-12-14T14:39:28.130998+00:00",
        "meta_object_name": "STARLINK-35648",
        "meta_object_id": "2025-262AC",
        "meta_epoch": "2025-12-13T12:08:21.572736",
        "meta_mean_motion": 15.50603373,
        "meta_eccentricity": 0.00010524,
        "meta_inclination": 42.9975,
        "meta_ra_of_asc_node": 66.5208,
        "meta_arg_of_pericenter": 275.6037,
        "meta_mean_anomaly": 84.4703,
        "meta_ephemeris_type": 0,
        "meta_classification_type": "U",
        "meta_norad_cat_id": 66482,
        "meta_element_set_no": 999,
        "meta_rev_at_epoch": 552,
        "meta_bstar": 0.0015071759,
        "meta_mean_motion_dot": 0.00089167,
        "meta_mean_motion_ddot": 0,
        "tle_line1": "1 66482U 25262AC  25347.50580524  .00089167  00000+0  15072-2 0  9990",
        "tle_line2": "2 66482  42.9975  66.5208 0001052 275.6037  84.4703 15.50603373  5520"
      },
      "geometry": {
        "type": "Point",
        "coordinates": [
          107.13405847470578,
          34.306877150059194
        ]
      }
    },
    {
      "type": "Feature",
      "properties": {
        "norad_id": 66483,
        "name": "STARLINK-35654",
        "group": "last-30-days",
        "lat": 35.18509739097142,
        "lon": 109.20696133485923,
        "alt_km": 410.6267410550481,
        "timestamp": "2025-12-14T14:39:28.131008+00:00",
        "meta_object_name": "STARLINK-35654",
        "meta_object_id": "2025-262AD",
        "meta_epoch": "2025-12-13T16:46:07.847616",
        "meta_mean_motion": 15.50635895,
        "meta_eccentricity": 0.00038169,
        "meta_inclination": 43.0049,
        "meta_ra_of_asc_node": 65.39,
        "meta_arg_of_pericenter": 274.8274,
        "meta_mean_anomaly": 85.215,
        "meta_ephemeris_type": 0,
        "meta_classification_type": "U",
        "meta_norad_cat_id": 66483,
        "meta_element_set_no": 999,
        "meta_rev_at_epoch": 571,
        "meta_bstar": 0.0016113282,
        "meta_mean_motion_dot": 0.00095559,
        "meta_mean_motion_ddot": 0,
        "tle_line1": "1 66483U 25262AD  25347.69870194  .00095559  00000+0  16113-2 0  9995",
        "tle_line2": "2 66483  43.0049  65.3900 0003816 274.8274  85.2150 15.50635895  5715"
      },
      "geometry": {
        "type": "Point",
        "coordinates": [
          109.20696133485923,
          35.18509739097142
        ]
      }
    },
    {
      "type": "Feature",
      "properties": {
        "norad_id": 66484,
        "name": "STARLINK-35371",
        "group": "last-30-days",
        "lat": 35.80569004883203,
        "lon": 110.77024947792485,
        "alt_km": 409.87760880511814,
        "timestamp": "2025-12-14T14:39:28.131018+00:00",
        "meta_object_name": "STARLINK-35371",
        "meta_object_id": "2025-262AE",
        "meta_epoch": "2025-12-12T16:01:32.219328",
        "meta_mean_motion": 15.50574998,
        "meta_eccentricity": 0.00014167,
        "meta_inclination": 43.0018,
        "meta_ra_of_asc_node": 71.4158,
        "meta_arg_of_pericenter": 278.2184,
        "meta_mean_anomaly": 81.8515,
        "meta_ephemeris_type": 0,
        "meta_classification_type": "U",
        "meta_norad_cat_id": 66484,
        "meta_element_set_no": 999,
        "meta_rev_at_epoch": 555,
        "meta_bstar": 7.4960958e-05,
        "meta_mean_motion_dot": 4.058e-05,
        "meta_mean_motion_ddot": 0,
        "tle_line1": "1 66484U 25262AE  25346.66773402  .00004058  00000+0  74961-4 0  9997",
        "tle_line2": "2 66484  43.0018  71.4158 0001416 278.2184  81.8515 15.50574998  5552"
      },
      "geometry": {
        "type": "Point",
        "coordinates": [
          110.77024947792485,
          35.80569004883203
        ]
      }
    },
    {
      "type": "Feature",
      "properties": {
        "norad_id": 66485,
        "name": "STARLINK-34774",
        "group": "last-30-days",
        "lat": 29.60301133509227,
        "lon": -102.93486524328907,
        "alt_km": 440.48339758689053,
        "timestamp": "2025-12-14T14:39:28.131029+00:00",
        "meta_object_name": "STARLINK-34774",
        "meta_object_id": "2025-263A",
        "meta_epoch": "2025-12-13T22:00:00.999936",
        "meta_mean_motion": 15.40645066,
        "meta_eccentricity": 0.00018793,
        "meta_inclination": 43,
        "meta_ra_of_asc_node": 118.6332,
        "meta_arg_of_pericenter": 291.2524,
        "meta_mean_anomaly": 308.0909,
        "meta_ephemeris_type": 0,
        "meta_classification_type": "U",
        "meta_norad_cat_id": 66485,
        "meta_element_set_no": 999,
        "meta_rev_at_epoch": 582,
        "meta_bstar": 0.0013087283,
        "meta_mean_motion_dot": 0.00054659,
        "meta_mean_motion_ddot": 0,
        "tle_line1": "1 66485U 25263A   25347.91667824  .00054659  00000+0  13087-2 0  9990",
        "tle_line2": "2 66485  43.0000 118.6332 0001879 291.2524 308.0909 15.40645066  5823"
      },
      "geometry": {
        "type": "Point",
        "coordinates": [
          -102.93486524328907,
          29.60301133509227
        ]
      }
    },
    {
      "type": "Feature",
      "properties": {
        "norad_id": 66486,
        "name": "STARLINK-34844",
        "group": "last-30-days",
        "lat": -36.04711455906249,
        "lon": 62.87487347552141,
        "alt_km": 415.26615008304634,
        "timestamp": "2025-12-14T14:39:28.131040+00:00",
        "meta_object_name": "STARLINK-34844",
        "meta_object_id": "2025-263B",
        "meta_epoch": "2025-12-13T18:48:59.664960",
        "meta_mean_motion": 15.50521682,
        "meta_eccentricity": 0.00040201,
        "meta_inclination": 43.0013,
        "meta_ra_of_asc_node": 119.0631,
        "meta_arg_of_pericenter": 285.7981,
        "meta_mean_anomaly": 74.2436,
        "meta_ephemeris_type": 0,
        "meta_classification_type": "U",
        "meta_norad_cat_id": 66486,
        "meta_element_set_no": 999,
        "meta_rev_at_epoch": 567,
        "meta_bstar": 0.0010716993,
        "meta_mean_motion_dot": 0.00062922,
        "meta_mean_motion_ddot": 0,
        "tle_line1": "1 66486U 25263B   25347.78402390  .00062922  00000+0  10717-2 0  9990",
        "tle_line2": "2 66486  43.0013 119.0631 0004020 285.7981  74.2436 15.50521682  5679"
      },
      "geometry": {
        "type": "Point",
        "coordinates": [
          62.87487347552141,
          -36.04711455906249
        ]
      }
    },
    {
      "type": "Feature",
      "properties": {
        "norad_id": 66487,
        "name": "STARLINK-34733",
        "group": "last-30-days",
        "lat": -26.397212742125216,
        "lon": -33.3956981449847,
        "alt_km": 445.8345498067465,
        "timestamp": "2025-12-14T14:39:28.131050+00:00",
        "meta_object_name": "STARLINK-34733",
        "meta_object_id": "2025-263C",
        "meta_epoch": "2025-12-13T22:00:00.999936",
        "meta_mean_motion": 15.40664274,
        "meta_eccentricity": 0.00015216,
        "meta_inclination": 43,
        "meta_ra_of_asc_node": 118.4208,
        "meta_arg_of_pericenter": 274.249,
        "meta_mean_anomaly": 52.1791,
        "meta_ephemeris_type": 0,
        "meta_classification_type": "U",
        "meta_norad_cat_id": 66487,
        "meta_element_set_no": 999,
        "meta_rev_at_epoch": 582,
        "meta_bstar": 0.0013333118,
        "meta_mean_motion_dot": 0.00055734,
        "meta_mean_motion_ddot": 0,
        "tle_line1": "1 66487U 25263C   25347.91667824  .00055734  00000+0  13333-2 0  9991",
        "tle_line2": "2 66487  43.0000 118.4208 0001521 274.2490  52.1791 15.40664274  5820"
      },
      "geometry": {
        "type": "Point",
        "coordinates": [
          -33.3956981449847,
          -26.397212742125216
        ]
      }
    },
    {
      "type": "Feature",
      "properties": {
        "norad_id": 66488,
        "name": "STARLINK-35515",
        "group": "last-30-days",
        "lat": -34.0386639574892,
        "lon": 67.74999018445864,
        "alt_km": 416.3222777004394,
        "timestamp": "2025-12-14T14:39:28.131061+00:00",
        "meta_object_name": "STARLINK-35515",
        "meta_object_id": "2025-263D",
        "meta_epoch": "2025-12-13T15:42:28.920096",
        "meta_mean_motion": 15.50634599,
        "meta_eccentricity": 0.0001804,
        "meta_inclination": 42.9989,
        "meta_ra_of_asc_node": 119.8084,
        "meta_arg_of_pericenter": 253.8885,
        "meta_mean_anomaly": 106.1776,
        "meta_ephemeris_type": 0,
        "meta_classification_type": "U",
        "meta_norad_cat_id": 66488,
        "meta_element_set_no": 999,
        "meta_rev_at_epoch": 570,
        "meta_bstar": 0.0019100458,
        "meta_mean_motion_dot": 0.00113577,
        "meta_mean_motion_ddot": 0,
        "tle_line1": "1 66488U 25263D   25347.65450139  .00113577  00000+0  19100-2 0  9990",
        "tle_line2": "2 66488  42.9989 119.8084 0001804 253.8885 106.1776 15.50634599  5705"
      },
      "geometry": {
        "type": "Point",
        "coordinates": [
          67.74999018445864,
          -34.0386639574892
        ]
      }
    }
  ]
}